[
  {
    "ORDINAL": "1",
    "COMMENT": "GENERATED VIA SPACETRACK.ORG API",
    "ORIGINATOR": "18 SPCS",
    "NORAD_CAT_ID": "342",
    "OBJECT_NAME": "ATLAS AGENA B R/B",
    "OBJECT_TYPE": "ROCKET BODY",
    "CLASSIFICATION_TYPE": "U",
    "INTLDES": "62030A",
    "EPOCH": "1962-07-25 07:33:28",
    "EPOCH_MICROSECONDS": "439999",
    "MEAN_MOTION": "16.32325923",
    "ECCENTRICITY": "0.0017596",
    "INCLINATION": "96.1239",
    "RA_OF_ASC_NODE": "311.4906",
    "ARG_OF_PERICENTER": "204.0534",
    "MEAN_ANOMALY": "313.752",
    "EPHEMERIS_TYPE": "0",
    "ELEMENT_SET_NO": "999",
    "REV_AT_EPOCH": "105",
    "BSTAR": "0",
    "MEAN_MOTION_DOT": "0.01540583",
    "MEAN_MOTION_DDOT": "0.19879",
    "FILE": "33908",
    "TLE_LINE0": "0 ATLAS AGENA B R/B",
    "TLE_LINE1": "1 00342U 62030  A 62206.31491250  .01540583 +19879-0 +00000-0 0  9991",
    "TLE_LINE2": "2 00342 096.1239 311.4906 0017596 204.0534 313.7520 16.32325923001054",
    "OBJECT_ID": "1962-030A",
    "OBJECT_NUMBER": "342",
    "SEMIMAJOR_AXIS": "6564.438",
    "PERIOD": "88.218",
    "APOGEE": "197.854",
    "PERIGEE": "174.752",
    "DECAYED": "1"
  },
  {
    "ORDINAL": "1",
    "COMMENT": "GENERATED VIA SPACETRACK.ORG API",
    "ORIGINATOR": "18 SPCS",
    "NORAD_CAT_ID": "343",
    "OBJECT_NAME": "SAMOS 9 (FTV 2403)",
    "OBJECT_TYPE": "PAYLOAD",
    "CLASSIFICATION_TYPE": "U",
    "INTLDES": "62030B",
    "EPOCH": "1962-07-23 17:09:45",
    "EPOCH_MICROSECONDS": "175680",
    "MEAN_MOTION": "16.31237195",
    "ECCENTRICITY": "0.0039477",
    "INCLINATION": "96.112",
    "RA_OF_ASC_NODE": "309.9028",
    "ARG_OF_PERICENTER": "211.5811",
    "MEAN_ANOMALY": "303.0367",
    "EPHEMERIS_TYPE": "0",
    "ELEMENT_SET_NO": "999",
    "REV_AT_EPOCH": "79",
    "BSTAR": "0",
    "MEAN_MOTION_DOT": "0.02065364",
    "MEAN_MOTION_DDOT": "0.012419",
    "FILE": "33908",
    "TLE_LINE0": "0 SAMOS 9 (FTV 2403)",
    "TLE_LINE1": "1 00343U 62030  B 62204.71510620  .02065364 +12419-1 +00000-0 0  9991",
    "TLE_LINE2": "2 00343 096.1120 309.9028 0039477 211.5811 303.0367 16.31237195000797",
    "OBJECT_ID": "1962-030B",
    "OBJECT_NUMBER": "343",
    "SEMIMAJOR_AXIS": "6567.358",
    "PERIOD": "88.277",
    "APOGEE": "215.149",
    "PERIGEE": "163.297",
    "DECAYED": "1"
  },
  {
    "ORDINAL": "1",
    "COMMENT": "GENERATED VIA SPACETRACK.ORG API",
    "ORIGINATOR": "18 SPCS",
    "NORAD_CAT_ID": "344",
    "OBJECT_NAME": "FTV 1130",
    "OBJECT_TYPE": "PAYLOAD",
    "CLASSIFICATION_TYPE": "U",
    "INTLDES": "62031A",
    "EPOCH": "1962-08-14 07:20:16",
    "EPOCH_MICROSECONDS": "134719",
    "MEAN_MOTION": "16.44108128",
    "ECCENTRICITY": "0",
    "INCLINATION": "70.2895",
    "RA_OF_ASC_NODE": "315.5727",
    "ARG_OF_PERICENTER": "119.594",
    "MEAN_ANOMALY": "151.1389",
    "EPHEMERIS_TYPE": "0",
    "ELEMENT_SET_NO": "999",
    "REV_AT_EPOCH": "390",
    "BSTAR": "0",
    "MEAN_MOTION_DOT": "0.05058448",
    "MEAN_MOTION_DDOT": "0",
    "FILE": "33908",
    "TLE_LINE0": "0 FTV 1130",
    "TLE_LINE1": "1 00344U 62031  A 62226.30574230  .05058448 +00000-0 +00000-0 0  9999",
    "TLE_LINE2": "2 00344 070.2895 315.5727 0000000 119.5940 151.1389 16.44108128003908",
    "OBJECT_ID": "1962-031A",
    "OBJECT_NUMBER": "344",
    "SEMIMAJOR_AXIS": "6533.038",
    "PERIOD": "87.585",
    "APOGEE": "154.903",
    "PERIGEE": "154.903",
    "DECAYED": "1"
  },
  {
    "ORDINAL": "1",
    "COMMENT": "GENERATED VIA SPACETRACK.ORG API",
    "ORIGINATOR": "18 SPCS",
    "NORAD_CAT_ID": "345",
    "OBJECT_NAME": "FTV 1131",
    "OBJECT_TYPE": "PAYLOAD",
    "CLASSIFICATION_TYPE": "U",
    "INTLDES": "62032A",
    "EPOCH": "1962-08-23 13:39:00",
    "EPOCH_MICROSECONDS": "440640",
    "MEAN_MOTION": "16.31316547",
    "ECCENTRICITY": "0.0001686",
    "INCLINATION": "71.087",
    "RA_OF_ASC_NODE": "312.3753",
    "ARG_OF_PERICENTER": "104.7713",
    "MEAN_ANOMALY": "178.422",
    "EPHEMERIS_TYPE": "0",
    "ELEMENT_SET_NO": "999",
    "REV_AT_EPOCH": "425",
    "BSTAR": "0",
    "MEAN_MOTION_DOT": "0.05060203",
    "MEAN_MOTION_DDOT": "0",
    "FILE": "33908",
    "TLE_LINE0": "0 FTV 1131",
    "TLE_LINE1": "1 00345U 62032  A 62235.56875510  .05060203 +00000-0 +00000-0 0  9996",
    "TLE_LINE2": "2 00345 071.0870 312.3753 0001686 104.7713 178.4220 16.31316547004257",
    "OBJECT_ID": "1962-032A",
    "OBJECT_NUMBER": "345",
    "SEMIMAJOR_AXIS": "6567.145",
    "PERIOD": "88.272",
    "APOGEE": "190.118",
    "PERIGEE": "187.903",
    "DECAYED": "1"
  },
  {
    "ORDINAL": "1",
    "COMMENT": "GENERATED VIA SPACETRACK.ORG API",
    "ORIGINATOR": "18 SPCS",
    "NORAD_CAT_ID": "346",
    "OBJECT_NAME": "COSMOS 7 (SPUTNIK 17)",
    "OBJECT_TYPE": "PAYLOAD",
    "CLASSIFICATION_TYPE": "U",
    "INTLDES": "62033A",
    "EPOCH": "1962-07-30 07:43:17",
    "EPOCH_MICROSECONDS": "626656",
    "MEAN_MOTION": "15.99241543",
    "ECCENTRICITY": "0.0114013",
    "INCLINATION": "64.9536",
    "RA_OF_ASC_NODE": "113.9528",
    "ARG_OF_PERICENTER": "48.0896",
    "MEAN_ANOMALY": "312.8771",
    "EPHEMERIS_TYPE": "0",
    "ELEMENT_SET_NO": "999",
    "REV_AT_EPOCH": "31",
    "BSTAR": "0",
    "MEAN_MOTION_DOT": "0.00134612",
    "MEAN_MOTION_DDOT": "0",
    "FILE": "33908",
    "TLE_LINE0": "0 COSMOS 7 (SPUTNIK 17)",
    "TLE_LINE1": "1 00346U 62033  A 62211.32173179  .00134612 +00000-0 +00000-0 0  9999",
    "TLE_LINE2": "2 00346 064.9536 113.9528 0114013 048.0896 312.8771 15.99241543000318",
    "OBJECT_ID": "1962-033A",
    "OBJECT_NUMBER": "346",
    "SEMIMAJOR_AXIS": "6654.663",
    "PERIOD": "90.043",
    "APOGEE": "352.400",
    "PERIGEE": "200.656",
    "DECAYED": "1"
  },
  {
    "ORDINAL": "1",
    "COMMENT": "GENERATED VIA SPACETRACK.ORG API",
    "ORIGINATOR": "18 SPCS",
    "NORAD_CAT_ID": "347",
    "OBJECT_NAME": "SL-3 R/B",
    "OBJECT_TYPE": "ROCKET BODY",
    "CLASSIFICATION_TYPE": "U",
    "INTLDES": "62033B",
    "EPOCH": "1962-08-20 16:20:08",
    "EPOCH_MICROSECONDS": "142719",
    "MEAN_MOTION": "16.40654256",
    "ECCENTRICITY": "0",
    "INCLINATION": "64.9083",
    "RA_OF_ASC_NODE": "35.1934",
    "ARG_OF_PERICENTER": "50.9567",
    "MEAN_ANOMALY": "146.5304",
    "EPHEMERIS_TYPE": "0",
    "ELEMENT_SET_NO": "999",
    "REV_AT_EPOCH": "375",
    "BSTAR": "0",
    "MEAN_MOTION_DOT": "0.06144249",
    "MEAN_MOTION_DDOT": "0.084809",
    "FILE": "33908",
    "TLE_LINE0": "0 SL-3 R/B",
    "TLE_LINE1": "1 00347U 62033  B 62232.68064980  .06144249 +84809-1 +00000-0 0  9994",
    "TLE_LINE2": "2 00347 064.9083 035.1934 0000000 050.9567 146.5304 16.40654256003750",
    "OBJECT_ID": "1962-033B",
    "OBJECT_NUMBER": "347",
    "SEMIMAJOR_AXIS": "6542.204",
    "PERIOD": "87.770",
    "APOGEE": "164.069",
    "PERIGEE": "164.069",
    "DECAYED": "1"
  },
  {
    "ORDINAL": "1",
    "COMMENT": "GENERATED VIA SPACETRACK.ORG API",
    "ORIGINATOR": "18 SPCS",
    "NORAD_CAT_ID": "350",
    "OBJECT_NAME": "THOR ABLESTAR DEB",
    "OBJECT_TYPE": "DEBRIS",
    "CLASSIFICATION_TYPE": "U",
    "INTLDES": "61015DQ",
    "EPOCH": "2023-02-02 12:40:10",
    "EPOCH_MICROSECONDS": "560864",
    "MEAN_MOTION": "14.21040852",
    "ECCENTRICITY": "0.0128176",
    "INCLINATION": "66.9129",
    "RA_OF_ASC_NODE": "140.0596",
    "ARG_OF_PERICENTER": "358.7912",
    "MEAN_ANOMALY": "1.2854",
    "EPHEMERIS_TYPE": "0",
    "ELEMENT_SET_NO": "999",
    "REV_AT_EPOCH": "18799",
    "BSTAR": "0.00014895",
    "MEAN_MOTION_DOT": "0.00000269",
    "MEAN_MOTION_DDOT": "0",
    "FILE": "3768366",
    "TLE_LINE0": "0 THOR ABLESTAR DEB",
    "TLE_LINE1": "1 00350U 61015DQ  23033.52790001  .00000269  00000-0  14895-3 0  9993",
    "TLE_LINE2": "2 00350  66.9129 140.0596 0128176 358.7912   1.2854 14.21040852187999",
    "OBJECT_ID": "1961-015DQ",
    "OBJECT_NUMBER": "350",
    "SEMIMAJOR_AXIS": "7199.972",
    "PERIOD": "101.334",
    "APOGEE": "914.123",
    "PERIGEE": "729.551",
    "DECAYED": "0"
  },
  {
    "ORDINAL": "1",
    "COMMENT": "GENERATED VIA SPACETRACK.ORG API",
    "ORIGINATOR": "18 SPCS",
    "NORAD_CAT_ID": "351",
    "OBJECT_NAME": "THOR ABLESTAR DEB",
    "OBJECT_TYPE": "DEBRIS",
    "CLASSIFICATION_TYPE": "U",
    "INTLDES": "61015DR",
    "EPOCH": "2023-02-02 02:27:41",
    "EPOCH_MICROSECONDS": "451840",
    "MEAN_MOTION": "14.56609578",
    "ECCENTRICITY": "0.0034082",
    "INCLINATION": "66.7516",
    "RA_OF_ASC_NODE": "274.6503",
    "ARG_OF_PERICENTER": "198.9738",
    "MEAN_ANOMALY": "161.0107",
    "EPHEMERIS_TYPE": "0",
    "ELEMENT_SET_NO": "999",
    "REV_AT_EPOCH": "19677",
    "BSTAR": "0.00072207",
    "MEAN_MOTION_DOT": "0.00003154",
    "MEAN_MOTION_DDOT": "0",
    "FILE": "3768366",
    "TLE_LINE0": "0 THOR ABLESTAR DEB",
    "TLE_LINE1": "1 00351U 61015DR  23033.10256310  .00003154  00000-0  72207-3 0  9995",
    "TLE_LINE2": "2 00351  66.7516 274.6503 0034082 198.9738 161.0107 14.56609578196778",
    "OBJECT_ID": "1961-015DR",
    "OBJECT_NUMBER": "351",
    "SEMIMAJOR_AXIS": "7082.280",
    "PERIOD": "98.860",
    "APOGEE": "728.282",
    "PERIGEE": "680.007",
    "DECAYED": "0"
  }
]
